PRI: FF
FT: 180800
FTXX99 VTBB 170838 TAF VTBS 170430Z 1800/2000 08005KT 9999 FEW020
SCT035 BECMG 1800/1810   FEW025 BECMG 1820/1920 FEW020 SCT035 BECMG
1920/2000 FEW025= TAF VTBD 170500Z 1706/1812 19008KT 9999 FEW020
SCT100 TEMPO 1708/1712   22012KT 6000 -TSRA FEW018CB SCT030 BKN100
BECMG 1716/1718 14005KT   FEW020 BECMG 1803/1805 22008KT TEMPO
1808/1812 26015KT 6000 -TSRA   FEW018CB SCT030=