PRI: FF
FT: 210326
SAXX99 VTBB 170838
METAR VTBS 170830Z 18012KT 150V210 9999 FEW020 30/23 Q1003 NOSIG=